name,latitude,longitude,country,city,iata_code
Mar de Cortés International Airport,31.351621252,-113.305864334,MX,Puerto Peñasco,AMC
Port Moresby Jacksons International Airport,-9.4433803558,147.2200012207,PG,Port Moresby,POM
Keflavik International Airport,63.9850006104,-22.6056003571,IS,Reykjavík,KEF
Priština International Airport,42.5728,21.035801,XK,Prishtina,PRN
Edmonton International Airport,53.3097000122,-113.580001831,CA,Edmonton,YEG
Halifax / Stanfield International Airport,44.8807983398,-63.5085983276,CA,Halifax,YHZ
Ottawa Macdonald-Cartier International Airport,45.3224983215,-75.6691970825,CA,Ottawa,YOW
Montreal / Pierre Elliott Trudeau International Airport,45.4706001282,-73.7407989502,CA,Montréal,YUL
Vancouver International Airport,49.193901062,-123.183998108,CA,Vancouver,YVR
Winnipeg / James Armstrong Richardson International Airport,49.9099998474,-97.2398986816,CA,Winnipeg,YWG
Calgary International Airport,51.113899231,-114.019996643,CA,Calgary,YYC
Victoria International Airport,48.646900177,-123.426002502,CA,Victoria,YYJ
St. John's International Airport,47.618598938,-52.7518997192,CA,St. John's,YYT
Lester B. Pearson International Airport,43.6772003174,-79.6305999756,CA,Toronto,YYZ
Houari Boumediene Airport,36.6910018921,3.2154099941,DZ,Algiers,ALG
Kotoka International Airport,5.6051898003,-0.1667860001,GH,Accra,ACC
Nnamdi Azikiwe International Airport,9.0067901611,7.2631697655,NG,Abuja,ABV
Akwa Ibom International Airport,4.8725,8.093,NG,Uyo,QUO
Murtala Muhammed International Airport,6.5773701668,3.321160078,NG,Lagos,LOS
Tunis Carthage International Airport,36.8510017395,10.2271995544,TN,Tunis,TUN
Brussels Airport,50.9014015198,4.4844398499,BE,Brussels,BRU
Brussels South Charleroi Airport,50.4592018127,4.4538202286,BE,Brussels,CRL
Liège Airport,50.6374015808,5.4432201385,BE,Liège,LGG
Berlin-Schönefeld International Airport,52.3800010681,13.5225000381,DE,Berlin,SXF
Dresden Airport,51.1328010559,13.76720047,DE,Dresden,DRS
Frankfurt am Main International Airport,50.026402,8.54313,DE,Frankfurt-am-Main,FRA
Münster Osnabrück Airport,52.134601593,7.6848301888,DE,Münster,FMO
Hamburg Airport,53.6304016113,9.9882297516,DE,Hamburg,HAM
Cologne Bonn Airport,50.8658981323,7.1427397728,DE,Cologne,CGN
Düsseldorf International Airport,51.2895011902,6.7667798996,DE,Düsseldorf,DUS
Munich International Airport,48.3538017273,11.7861003876,DE,Munich,MUC
Nuremberg Airport,49.4986991882,11.0669002533,DE,Nuremberg,NUE
Leipzig Halle Airport,51.4323997498,12.2416000366,DE,Leipzig,LEJ
Stuttgart Airport,48.6898994446,9.2219600678,DE,Stuttgart,STR
Berlin-Tegel International Airport,52.5597000122,13.2876996994,DE,Berlin,TXL
Hannover Airport,52.461101532,9.6850795746,DE,Hannover,HAJ
Bremen Airport,53.0475006104,8.7866697311,DE,Bremen,BRE
Dortmund Airport,51.5182991028,7.6122398377,DE,Dortmund,DTM
Karlsruhe Baden-Baden Airport,48.7793998718,8.0804996491,DE,Baden-Baden,FKB
Lennart Meri Tallinn Airport,59.4132995605,24.8327999115,EE,Tallinn,TLL
Helsinki Vantaa Airport,60.317199707,24.963300705,FI,Helsinki,HEL
Belfast International Airport,54.6575012207,-6.2158298492,GB,Belfast,BFS
George Best Belfast City Airport,54.6180992126,-5.8724999428,GB,Belfast,BHD
Birmingham International Airport,52.4538993835,-1.7480299473,GB,Birmingham,BHX
Manchester Airport,53.3536987305,-2.2749500275,GB,Manchester,MAN
Robin Hood Doncaster Sheffield Airport,53.4805378105,-1.0106563568,GB,Doncaster,DSA
Cardiff International Airport,51.3967018127,-3.3433299065,GB,Cardiff,CWL
Bristol International Airport,51.3827018738,-2.7190899849,GB,Bristol,BRS
Liverpool John Lennon Airport,53.3335990906,-2.8497200012,GB,Liverpool,LPL
London Luton Airport,51.8746986389,-0.3683330119,GB,London,LTN
Bournemouth Airport,50.7799987793,-1.8424999714,GB,Bournemouth,BOH
Southampton Airport,50.9502983093,-1.3567999601,GB,Southampton,SOU
London Gatwick Airport,51.1481018066,-0.1902779937,GB,London,LGW
London Heathrow Airport,51.4706,-0.461941,GB,London,LHR
Leeds Bradford Airport,53.8658981323,-1.6605700254,GB,Leeds,LBA
Newcastle Airport,55.0374984741,-1.6916699409,GB,Newcastle,NCL
East Midlands Airport,52.8311004639,-1.3280600309,GB,Nottingham,EMA
Aberdeen Dyce Airport,57.2019004822,-2.1977798939,GB,Aberdeen,ABZ
Glasgow International Airport,55.8718986511,-4.4330601692,GB,Glasgow,GLA
Edinburgh Airport,55.9500007629,-3.3724999428,GB,Edinburgh,EDI
Norwich International Airport,52.6758003235,1.2827800512,GB,Norwich,NWI
London Stansted Airport,51.8849983215,0.2349999994,GB,London,STN
Exeter International Airport,50.7344017029,-3.4138898849,GB,Exeter,EXT
RAF Brize Norton,51.75,-1.5836199522,GB,Brize Norton,BZZ
Amsterdam Airport Schiphol,52.3086013794,4.7638897896,NL,Amsterdam,AMS
Maastricht Aachen Airport,50.9117012024,5.7701401711,NL,Maastricht,MST
Eindhoven Airport,51.4500999451,5.3745298386,NL,Eindhoven,EIN
Cork Airport,51.8413009644,-8.491109848,IE,Cork,ORK
Dublin Airport,53.4212989807,-6.270070076,IE,Dublin,DUB
Shannon Airport,52.7019996643,-8.9248199463,IE,Limerick,SNN
Billund Airport,55.7402992249,9.1517801285,DK,Billund,BLL
Copenhagen Kastrup Airport,55.6179008484,12.6560001373,DK,Copenhagen,CPH
Aalborg Airport,57.0927589138,9.8492431641,DK,Aalborg,AAL
Luxembourg-Findel International Airport,49.6265983582,6.211520195,LU,Luxembourg,LUX
Bodø Airport,67.269203186,14.3653001785,NO,Bodø,BOO
Bergen Airport Flesland,60.29339981,5.218140125,NO,Bergen,BGO
Oslo Gardermoen Airport,60.193901062,11.100399971,NO,Oslo,OSL
Tromsø Airport,69.6832962036,18.9188995361,NO,Tromsø,TOS
Trondheim Airport Værnes,63.4578018,10.9239998,NO,Trondheim,TRD
Stavanger Airport Sola,58.876701354,5.6377801895,NO,Stavanger,SVG
Gdańsk Lech Wałęsa Airport,54.3776016235,18.4661998749,PL,Gdańsk,GDN
John Paul II International Airport Kraków-Balice Airport,50.0777015686,19.7847995758,PL,Kraków,KRK
Katowice International Airport,50.4743003845,19.0799999237,PL,Katowice,KTW
Modlin Airport,52.4510993958,20.6518001556,PL,Warsaw,WMI
Poznań-Ławica Airport,52.4210014343,16.8262996674,PL,Poznań,POZ
Warsaw Chopin Airport,52.1656990051,20.9671001434,PL,Warsaw,WAW
Copernicus Wrocław Airport,51.1026992798,16.885799408,PL,Wrocław,WRO
Gothenburg-Landvetter Airport,57.6627998352,12.279800415,SE,Gothenburg,GOT
Malmö Sturup Airport,55.536305364,13.3761978149,SE,Malmö,MMX
Luleå Airport,65.543800354,22.1219997406,SE,Luleå,LLA
Stockholm-Arlanda Airport,59.6519012451,17.9186000824,SE,Stockholm,ARN
Riga International Airport,56.9235992432,23.9710998535,LV,Riga,RIX
Vilnius International Airport,54.6341018677,25.2858009338,LT,Vilnius,VNO
Cape Town International Airport,-33.9648017883,18.6016998291,ZA,Cape Town,CPT
George Airport,-34.0055999756,22.378900528,ZA,George,GRJ
OR Tambo International Airport,-26.1392002106,28.2460002899,ZA,Johannesburg,JNB
King Shaka International Airport,-29.6144444444,31.1197222222,ZA,Durban,DUR
Kenneth Kaunda International Airport Lusaka,-15.3308000565,28.4526004791,ZM,Lusaka,LUN
Gran Canaria Airport,27.9319000244,-15.3865995407,ES,Gran Canaria Island,LPA
Tenerife South Airport,28.044500351,-16.5725002289,ES,Tenerife Island,TFS
Tenerife Norte Airport,28.4827003479,-16.3414993286,ES,Tenerife Island,TFN
Mohammed V International Airport,33.3675003052,-7.5899701118,MA,Casablanca,CMN
Léopold Sédar Senghor International Airport,14.7397003174,-17.4902000427,SN,Dakar,DKR
Addis Ababa Bole International Airport,8.9778900147,38.7993011475,ET,Addis Ababa,ADD
Cairo International Airport,30.1219005585,31.4055995941,EG,Cairo,CAI
Hurghada International Airport,27.1783008575,33.7994003296,EG,Hurghada,HRG
Jomo Kenyatta International Airport,-1.319239974,36.9277992249,KE,Nairobi,NBO
Mombasa Moi International Airport,-4.0348300934,39.5942001343,KE,Mombasa,MBA
Tripoli International Airport,32.6635017395,13.1590003967,LY,Tripoli,TIP
Juba International Airport,4.872010231,31.6011009216,SS,Juba,JUB
Khartoum International Airport,15.5895004272,32.5531997681,SD,Khartoum,KRT
Sungai Siring International Airport,-0.373611,117.255556,ID,Samarinda,
Albuquerque International Sunport Airport,35.0401992798,-106.6090011597,US,Albuquerque,ABQ
Augusta Regional At Bush Field,33.3698997498,-81.9645004272,US,Augusta,AGS
Rick Husband Amarillo International Airport,35.2193984985,-101.7060012817,US,Amarillo,AMA
Hartsfield Jackson Atlanta International Airport,33.6366996765,-84.4281005859,US,Atlanta,ATL
Austin Bergstrom International Airport,30.1944999695,-97.6698989868,US,Austin,AUS
Asheville Regional Airport,35.4361991882,-82.5418014526,US,Asheville,AVL
Bradley International Airport,41.9388999939,-72.6831970215,US,Hartford,BDL
Boeing Field King County International Airport,47.5299987793,-122.3020019531,US,Seattle,BFI
Bangor International Airport,44.8073997498,-68.8281021118,US,Bangor,BGR
Birmingham-Shuttlesworth International Airport,33.56290054,-86.75350189,US,Birmingham,BHM
Billings Logan International Airport,45.8077011108,-108.5429992676,US,Billings,BIL
Central Illinois Regional Airport at Bloomington-Normal,40.47710037,-88.91590118,US,Bloomington/Normal,BMI
Nashville International Airport,36.1245002747,-86.6781997681,US,Nashville,BNA
Boise Air Terminal/Gowen field,43.56439972,-116.2229996,US,Boise,BOI
General Edward Lawrence Logan International Airport,42.36429977,-71.00520325,US,Boston,BOS
"Baton Rouge Metropolitan, Ryan Field",30.53319931,-91.14959717,US,Baton Rouge,BTR
Buffalo Niagara International Airport,42.94049835,-78.73220062,US,Buffalo,BUF
Baltimore/Washington International Thurgood Marshall Airport,39.17539978,-76.66829681,US,Baltimore,BWI
Columbia Metropolitan Airport,33.9388008118,-81.1194992065,US,Columbia,CAE
Lovell Field,35.0353012085,-85.2037963867,US,Chattanooga,CHA
Charleston Air Force Base-International Airport,32.89860153,-80.04049683,US,Charleston,CHS
The Eastern Iowa Airport,41.8847007751,-91.7108001709,US,Cedar Rapids,CID
Cleveland Hopkins International Airport,41.4117012024,-81.8498001099,US,Cleveland,CLE
Charlotte Douglas International Airport,35.2140007019,-80.9430999756,US,Charlotte,CLT
Port Columbus International Airport,39.9980010986,-82.8918991089,US,Columbus,CMH
City of Colorado Springs Municipal Airport,38.8058013916,-104.7009963989,US,Colorado Springs,COS
Casper-Natrona County International Airport,42.90800095,-106.4639969,US,Casper,CPR
Corpus Christi International Airport,27.7703990936,-97.5011978149,US,Corpus Christi,CRP
Yeager Airport,38.3731002808,-81.5932006836,US,Charleston,CRW
Cincinnati Northern Kentucky International Airport,39.0488014221,-84.6678009033,US,Cincinnati,CVG
Dallas Love Field,32.8470993042,-96.8517990112,US,Dallas,DAL
James M Cox Dayton International Airport,39.9024009705,-84.2193984985,US,Dayton,DAY
Dubuque Regional Airport,42.40200043,-90.70950317,US,Dubuque,DBQ
Ronald Reagan Washington National Airport,38.8521003723,-77.0376968384,US,Washington,DCA
Denver International Airport,39.8616981506,-104.672996521,US,Denver,DEN
Dallas Fort Worth International Airport,32.8968009949,-97.0380020142,US,Dallas-Fort Worth,DFW
Duluth International Airport,46.8420982361,-92.1936035156,US,Duluth,DLH
Des Moines International Airport,41.5340003967,-93.6631011963,US,Des Moines,DSM
Detroit Metropolitan Wayne County Airport,42.2123985291,-83.3534011841,US,Detroit,DTW
Erie International Tom Ridge Field,42.0831270134,-80.1738667488,US,Erie,ERI
Newark Liberty International Airport,40.6925010681,-74.1687011719,US,Newark,EWR
Fort Lauderdale Hollywood International Airport,26.072599411,-80.1527023315,US,Fort Lauderdale,FLL
Fort Smith Regional Airport,35.3366012573,-94.367401123,US,Fort Smith,FSM
Fort Wayne International Airport,40.97850037,-85.19509888,US,Fort Wayne,FWA
Spokane International Airport,47.6198997498,-117.533996582,US,Spokane,GEG
Gulfport Biloxi International Airport,30.4073009491,-89.070098877,US,Gulfport,GPT
Austin Straubel International Airport,44.4850997925,-88.1296005249,US,Green Bay,GRB
Piedmont Triad International Airport,36.0978012085,-79.9373016357,US,Greensboro,GSO
Greenville Spartanburg International Airport,34.8956985474,-82.2189025879,US,Greenville,GSP
Range Regional Airport,47.38660049,-92.83899689,US,Hibbing,HIB
William P Hobby Airport,29.64539909,-95.27890015,US,Houston,HOU
Huntsville International Carl T Jones Field,34.6371994019,-86.775100708,US,Huntsville,HSV
Tri-State/Milton J. Ferguson Field,38.36669922,-82.55799866,US,Huntington,HTS
Washington Dulles International Airport,38.94449997,-77.45580292,US,Washington,IAD
George Bush Intercontinental Houston Airport,29.9843997955,-95.3414001465,US,Houston,IAH
Wichita Mid Continent Airport,37.6498985291,-97.4330978394,US,Wichita,ICT
Indianapolis International Airport,39.717300415,-86.2944030762,US,Indianapolis,IND
Jackson-Medgar Wiley Evers International Airport,32.3111991882,-90.0758972168,US,Jackson,JAN
Jacksonville International Airport,30.4941005707,-81.6878967285,US,Jacksonville,JAX
John F Kennedy International Airport,40.63980103,-73.77890015,US,New York,JFK
Joplin Regional Airport,37.1517982483,-94.498298645,US,Joplin,JLN
McCarran International Airport,36.08010101,-115.1520004,US,Las Vegas,LAS
Los Angeles International Airport,33.94250107,-118.4079971,US,Los Angeles,LAX
Lubbock Preston Smith International Airport,33.6636009216,-101.8229980469,US,Lubbock,LBB
Blue Grass Airport,38.0364990234,-84.6059036255,US,Lexington,LEX
Lafayette Regional Airport,30.20529938,-91.98760223,US,Lafayette,LFT
La Guardia Airport,40.77719879,-73.87259674,US,New York,LGA
Bill & Hillary Clinton National Airport/Adams Field,34.7294006348,-92.2242965698,US,Little Rock,LIT
MBS International Airport,43.5329017639,-84.0795974731,US,Saginaw,MBS
Kansas City International Airport,39.2975997925,-94.7138977051,US,Kansas City,MCI
Orlando International Airport,28.4293994904,-81.3089981079,US,Orlando,MCO
Chicago Midway International Airport,41.7859992981,-87.7524032593,US,Chicago,MDW
Memphis International Airport,35.0424003601,-89.9766998291,US,Memphis,MEM
Montgomery Regional (Dannelly Field) Airport,32.30059814,-86.39399719,US,Montgomery,MGM
Manchester Airport,42.932598114,-71.4356994629,US,Manchester,MHT
Miami International Airport,25.7931995392,-80.2906036377,US,Miami,MIA
General Mitchell International Airport,42.9472007751,-87.8965988159,US,Milwaukee,MKE
Quad City International Airport,41.4485015869,-90.5074996948,US,Moline,MLI
Monroe Regional Airport,32.5108985901,-92.0376968384,US,Monroe,MLU
Mobile Regional Airport,30.6912002563,-88.2427978516,US,Mobile,MOB
Dane County Regional Truax Field,43.1399002075,-89.3375015259,US,Madison,MSN
Minneapolis-St Paul International/Wold-Chamberlain Airport,44.8819999695,-93.2218017578,US,Minneapolis,MSP
Louis Armstrong New Orleans International Airport,29.9934005737,-90.2580032349,US,New Orleans,MSY
Metropolitan Oakland International Airport,37.7212982178,-122.2210006714,US,Oakland,OAK
Will Rogers World Airport,35.3931007385,-97.6007003784,US,Oklahoma City,OKC
Ontario International Airport,34.0559997559,-117.6009979248,US,Ontario,ONT
Chicago O'Hare International Airport,41.97859955,-87.90480042,US,Chicago,ORD
Norfolk International Airport,36.8945999146,-76.2012023926,US,Norfolk,ORF
Palm Beach International Airport,26.6832008362,-80.0955963135,US,West Palm Beach,PBI
Portland International Airport,45.58869934,-122.5979996,US,Portland,PDX
Newport News Williamsburg International Airport,37.13190079,-76.49299622,US,Newport News,PHF
Philadelphia International Airport,39.8718986511,-75.2410964966,US,Philadelphia,PHL
Phoenix Sky Harbor International Airport,33.434299469,-112.0120010376,US,Phoenix,PHX
General Wayne A. Downing Peoria International Airport,40.6641998291,-89.6932983398,US,Peoria,PIA
Pittsburgh International Airport,40.49150085,-80.23290253,US,Pittsburgh,PIT
Portland International Jetport Airport,43.64619827,-70.30930328,US,Portland,PWM
Raleigh Durham International Airport,35.8776016235,-78.7874984741,US,Raleigh/Durham,RDU
Chicago Rockford International Airport,42.195400238,-89.0971984863,US,Chicago/Rockford,RFD
Richmond International Airport,37.5051994324,-77.3197021484,US,Richmond,RIC
Reno Tahoe International Airport,39.4990997314,-119.7679977417,US,Reno,RNO
Roanoke–Blacksburg Regional Airport,37.3255004883,-79.975402832,US,Roanoke,ROA
Greater Rochester International Airport,43.1189002991,-77.6724014282,US,Rochester,ROC
Rochester International Airport,43.9082984924,-92.5,US,Rochester,RST
Southwest Florida International Airport,26.5361995697,-81.7552032471,US,Fort Myers,RSW
San Diego International Airport,32.7336006165,-117.190002441,US,San Diego,SAN
San Antonio International Airport,29.533700943,-98.4698028564,US,San Antonio,SAT
Savannah Hilton Head International Airport,32.12760162,-81.20210266,US,Savannah,SAV
South Bend Regional Airport,41.7086982727,-86.3172988892,US,South Bend,SBN
Louisville International Standiford Field,38.1744003296,-85.736000061,US,Louisville,SDF
Seattle Tacoma International Airport,47.4490013123,-122.3089981079,US,Seattle,SEA
Orlando Sanford International Airport,28.7775993347,-81.2375030518,US,Orlando,SFB
San Francisco International Airport,37.6189994812,-122.375,US,San Francisco,SFO
Springfield Branson National Airport,37.24570084,-93.38860321,US,Springfield,SGF
Shreveport Regional Airport,32.4466018677,-93.8255996704,US,Shreveport,SHV
Norman Y. Mineta San Jose International Airport,37.3625984192,-121.9290008545,US,San Jose,SJC
Salt Lake City International Airport,40.7883987427,-111.9779968262,US,Salt Lake City,SLC
Sacramento International Airport,38.695400238,-121.591003418,US,Sacramento,SMF
John Wayne Airport-Orange County Airport,33.67570114,-117.8679962,US,Santa Ana,SNA
Abraham Lincoln Capital Airport,39.84410095,-89.67790222,US,Springfield,SPI
Sheppard Air Force Base-Wichita Falls Municipal Airport,33.98880005,-98.49189758,US,Wichita Falls,SPS
Sarasota Bradenton International Airport,27.3953990936,-82.554397583,US,Sarasota/Bradenton,SRQ
Lambert St Louis International Airport,38.7486991882,-90.3700027466,US,St Louis,STL
Sioux Gateway Col. Bud Day Field,42.40259933,-96.38439941,US,Sioux City,SUX
Syracuse Hancock International Airport,43.1111984253,-76.106300354,US,Syracuse,SYR
Tallahassee Regional Airport,30.3964996338,-84.3503036499,US,Tallahassee,TLH
Toledo Express Airport,41.58679962,-83.80780029,US,Toledo,TOL
Tampa International Airport,27.9755001068,-82.533203125,US,Tampa,TPA
Tri Cities Regional Tn Va Airport,36.4752006531,-82.4074020386,US,Bristol/Johnson/Kingsport,TRI
Tulsa International Airport,36.1983985901,-95.8880996704,US,Tulsa,TUL
Tucson International Airport,32.1161003113,-110.9410018921,US,Tucson,TUS
McGhee Tyson Airport,35.81100082,-83.9940033,US,Knoxville,TYS
Eglin Air Force Base,30.4832000732,-86.5253982544,US,Valparaiso,VPS
Tirana International Airport Mother Teresa,41.4146995544,19.7206001282,AL,Tirana,TIA
Burgas Airport,42.5695991516,27.5151996613,BG,Burgas,BOJ
Sofia Airport,42.6966934204,23.4114360809,BG,Sofia,SOF
Varna Airport,43.232101,27.8251,BG,Varna,VAR
Larnaca International Airport,34.8750991821,33.6249008179,CY,Larnarca,LCA
Paphos International Airport,34.7179985046,32.4856987,CY,Paphos,PFO
Zagreb Airport,45.7429008484,16.0687999725,HR,Zagreb,ZAG
Alicante International Airport,38.2821998596,-0.5581560135,ES,Alicante,ALC
Barcelona International Airport,41.2971000671,2.0784599781,ES,Barcelona,BCN
Adolfo Suárez Madrid–Barajas Airport,40.4936,-3.56676,ES,Madrid,MAD
Málaga Airport,36.6749000549,-4.4991102219,ES,Málaga,AGP
Palma De Mallorca Airport,39.551700592,2.7388100624,ES,Palma De Mallorca,PMI
Santiago de Compostela Airport,42.8963012695,-8.415140152,ES,Santiago de Compostela,SCQ
Bordeaux-Mérignac Airport,44.8283004761,-0.7155560255,FR,Bordeaux/Mérignac,BOD
Toulouse-Blagnac Airport,43.6291007996,1.3638199568,FR,Toulouse/Blagnac,TLS
Marseille Provence Airport,43.439271922,5.2214241028,FR,Marseille,MRS
Nice-Côte d'Azur Airport,43.6584014893,7.2158699036,FR,Nice,NCE
Charles de Gaulle International Airport,49.0127983093,2.5499999523,FR,Paris,CDG
Paris-Orly Airport,48.7252998352,2.3594400883,FR,Paris,ORY
EuroAirport Basel-Mulhouse-Freiburg Airport,47.5895996094,7.5299100876,FR,Bâle/Mulhouse,BSL
Eleftherios Venizelos International Airport,37.9364013672,23.9444999695,GR,Athens,ATH
Heraklion International Nikos Kazantzakis Airport,35.3396987915,25.1802997589,GR,Heraklion,HER
Thessaloniki Macedonia International Airport,40.5196990967,22.9708995819,GR,Thessaloniki,SKG
Budapest Ferenc Liszt International Airport,47.4369010925,19.2555999756,HU,Budapest,BUD
Bari Karol Wojtyła Airport,41.1389007568,16.7605991364,IT,Bari,BRI
Catania-Fontanarossa Airport,37.4668006897,15.0663995743,IT,Catania,CTA
Falcone–Borsellino Airport,38.1759986877,13.0909996033,IT,Palermo,PMO
Cagliari Elmas Airport,39.251499176,9.0542802811,IT,Cagliari,CAG
Malpensa International Airport,45.6305999756,8.7281103134,IT,Milan,MXP
Il Caravaggio International Airport,45.6739006042,9.7041702271,IT,Bergamo,BGY
Turin Airport,45.2008018494,7.6496300697,IT,Torino,TRN
Genoa Cristoforo Colombo Airport,44.4132995605,8.8374996185,IT,Genova,GOA
Linate Airport,45.445098877,9.2767400742,IT,Milan,LIN
Cuneo International Airport,44.547000885,7.6232199669,IT,Cuneo,CUF
Bologna Guglielmo Marconi Airport,44.5354003906,11.2887001038,IT,Bologna,BLQ
Treviso-Sant'Angelo Airport,45.648399353,12.1943998337,IT,Treviso,TSF
Verona Villafranca Airport,45.3956985474,10.8885002136,IT,Verona,VRN
Venice Marco Polo Airport,45.5052986145,12.3519001007,IT,Venice,VCE
Ciampino–G. B. Pastine International Airport,41.7994003296,12.5949001312,IT,Roma,CIA
Leonardo da Vinci–Fiumicino Airport,41.8045005798,12.2508001328,IT,Rome,FCO
Naples International Airport,40.8860015869,14.2908000946,IT,Nápoli,NAP
Pisa International Airport,43.6838989258,10.3927001953,IT,Pisa,PSA
Ljubljana Jože Pučnik Airport,46.2237014771,14.4575996399,SI,Ljubljana,LJU
Václav Havel Airport Prague,50.1007995605,14.2600002289,CZ,Prague,PRG
Ben Gurion International Airport,32.0113983154,34.8866996765,IL,Tel Aviv,TLV
Ovda International Airport,29.9402999878,34.935798645,IL,Eilat,VDA
Malta International Airport,35.857498,14.4775,MT,Luqa,MLA
Vienna International Airport,48.1102981567,16.5697002411,AT,Vienna,VIE
Faro Airport,37.0144004822,-7.9659099579,PT,Faro,FAO
Lajes Field,38.7617988586,-27.0907993317,PT,Lajes,TER
João Paulo II Airport,37.7411994934,-25.6979007721,PT,Ponta Delgada,PDL
Francisco de Sá Carneiro Airport,41.2481002808,-8.6813898087,PT,Porto,OPO
Lisbon Portela Airport,38.7812995911,-9.1359195709,PT,Lisbon,LIS
Sarajevo International Airport,43.8246002197,18.3314990997,BA,Sarajevo,SJJ
Henri Coandă International Airport,44.5722007751,26.1021995544,RO,Bucharest,OTP
Geneva Cointrin International Airport,46.2380981445,6.1089501381,CH,Geneva,GVA
Zürich Airport,47.4646987915,8.5491695404,CH,Zurich,ZRH
Esenboğa International Airport,40.1281013489,32.995098114,TR,Ankara,ESB
Adana Airport,36.9822006226,35.2803993225,TR,Adana,ADA
Antalya International Airport,36.8987007141,30.8005008698,TR,Antalya,AYT
Gaziantep International Airport,36.9472007751,37.4786987305,TR,Gaziantep,GZT
Atatürk International Airport,40.9768981934,28.8145999908,TR,Istanbul,IST
Adnan Menderes International Airport,38.2924003601,27.156999588,TR,İzmir,ADB
Dalaman International Airport,36.7131004333,28.7924995422,TR,Dalaman,DLM
Erzurum International Airport,39.9565010071,41.1702003479,TR,Erzurum,ERZ
Trabzon International Airport,40.995098114,39.7896995544,TR,Trabzon,TZX
Süleyman Demirel International Airport,37.8554000854,30.3684005737,TR,Isparta,ISE
Milas Bodrum International Airport,37.2505989075,27.6643009186,TR,Bodrum,BJV
Sabiha Gökçen International Airport,40.898601532,29.3092002869,TR,Istanbul,SAW
Belgrade Nikola Tesla Airport,44.8184013367,20.3090991974,RS,Belgrade,BEG
Podgorica Airport,42.3594017029,19.2518997192,ME,Podgorica,TGD
M. R. Štefánik Airport,48.1702003479,17.2126998901,SK,Bratislava,BTS
Punta Cana International Airport,18.5673999786,-68.3634033203,DO,Punta Cana,PUJ
Las Américas International Airport,18.4297008514,-69.6688995361,DO,Santo Domingo,SDQ
Norman Manley International Airport,17.9356994629,-76.7874984741,JM,Kingston,KIN
General Juan N Alvarez International Airport,16.7570991516,-99.7539978027,MX,Acapulco,ACA
Don Miguel Hidalgo Y Costilla International Airport,20.5217990875,-103.3109970093,MX,Guadalajara,GDL
General Ignacio P. Garcia International Airport,29.0958995819,-111.047996521,MX,Hermosillo,HMO
Licenciado Benito Juarez International Airport,19.4363002777,-99.0720977783,MX,Mexico City,MEX
General Mariano Escobedo International Airport,25.7784996033,-100.107002258,MX,Monterrey,MTY
Licenciado Gustavo Díaz Ordaz International Airport,20.6800994873,-105.2539978027,MX,Puerto Vallarta,PVR
Los Cabos International Airport,23.1518001556,-109.7210006714,MX,San José del Cabo,SJD
General Abelardo L. Rodríguez International Airport,32.5410995483,-116.9700012207,MX,Tijuana,TIJ
Cancún International Airport,21.0365009308,-86.8770980835,MX,Cancún,CUN
Tocumen International Airport,9.0713596344,-79.3834991455,PA,Tocumen,PTY
José Martí International Airport,22.989200592,-82.4091033936,CU,Havana,HAV
Juan Gualberto Gomez International Airport,23.0344009399,-81.4353027344,CU,Varadero,VRA
Owen Roberts International Airport,19.2928009033,-81.3576965332,KY,Georgetown,GCM
Lynden Pindling International Airport,25.0389995575,-77.4662017822,BS,Nassau,NAS
Philip S. W. Goldson International Airport,17.539100647,-88.3081970215,BZ,Belize City,BZE
Rarotonga International Airport,-21.2026996613,-159.805999756,CK,Avarua,RAR
Auckland International Airport,-37.0080986023,174.792007446,NZ,Auckland,AKL
Christchurch International Airport,-43.4893989563,172.5319976807,NZ,Christchurch,CHC
Wellington International Airport,-41.3272018433,174.804992676,NZ,Wellington,WLG
Bahrain International Airport,26.2707996368,50.6335983276,BH,Manama,BAH
King Fahd International Airport,26.471200943,49.7979011536,SA,Ad Dammam,DMM
King Abdulaziz International Airport,21.679599762,39.15650177,SA,Jeddah,JED
Prince Mohammad Bin Abdulaziz Airport,24.5534000397,39.7051010132,SA,Medina,MED
King Khaled International Airport,24.9575996399,46.6987991333,SA,Riyadh,RUH
Imam Khomeini International Airport,35.4160995483,51.1521987915,IR,Tehran,IKA
Mehrabad International Airport,35.689201355,51.3134002686,IR,Tehran,THR
Mashhad International Airport,36.2351989746,59.6409988403,IR,Mashhad,MHD
Shiraz Shahid Dastghaib International Airport,29.5391998291,52.5898017883,IR,Shiraz,SYZ
Tabriz International Airport,38.1338996887,46.2350006104,IR,Tabriz,TBZ
Queen Alia International Airport,31.7226009369,35.9931983948,JO,Amman,AMM
Kuwait International Airport,29.226600647,47.9688987732,KW,Kuwait City,KWI
Beirut Rafic Hariri International Airport,33.8208999634,35.4883995056,LB,Beirut,BEY
Duqm International Airport,19.5,57.6428,OM,Duqm,DQM
Abu Dhabi International Airport,24.4330005646,54.6511001587,AE,Abu Dhabi,AUH
Dubai International Airport,25.2527999878,55.3643989563,AE,Dubai,DXB
Al Maktoum International Airport,24.896356,55.161389,AE,Jebel Ali,DWC
Sharjah International Airport,25.3285999298,55.51720047,AE,Sharjah,SHJ
Muscat International Airport,23.5932998657,58.2844009399,OM,Muscat,MCT
Benazir Bhutto International Airport,33.6166992188,73.0991973877,PK,Islamabad,ISB
Sialkot Airport,32.5355567932,74.3638916016,PK,Sialkot,SKT
Baghdad International Airport,33.2625007629,44.2346000671,IQ,Baghdad,BGW
Basrah International Airport,30.5491008759,47.6621017456,IQ,Basrah,BSR
Aleppo International Airport,36.1806983948,37.2243995667,SY,Aleppo,ALP
Damascus International Airport,33.4114990234,36.5155982971,SY,Damascus,DAM
Bassel Al-Assad International Airport,35.4011001587,35.9486999512,SY,Latakia,LTK
Fairbanks International Airport,64.81510162,-147.8560028,US,Fairbanks,FAI
Ted Stevens Anchorage International Airport,61.1744003296,-149.9960021973,US,Anchorage,ANC
Antonio B. Won Pat International Airport,13.4834003448,144.796005249,GU,"Hagåtña, Guam International Airport",GUM
Laguindingan Airport,8.612203,124.456496,PH,Cagayan de Oro City,CGY
Honolulu International Airport,21.3187007904,-157.9219970703,US,Honolulu,HNL
Michael Gonzalez Airport,18.1802005768,-66.7568969727,PR,Adjuntas,
Hamad International Airport,25.273056,51.608056,QA,Doha,DOH
Kinmen Airport,24.4279003143,118.3590011597,TW,Shang-I,KNH
Kaohsiung International Airport,22.5771007538,120.3499984741,TW,Kaohsiung City,KHH
Taiwan Taoyuan International Airport,25.0776996613,121.233001709,TW,Taipei,TPE
Narita International Airport,35.7647018433,140.386001587,JP,Tokyo,NRT
Kansai International Airport,34.4272994995,135.2440032959,JP,Osaka,KIX
New Chitose Airport,42.7751998901,141.6920013428,JP,Chitose / Tomakomai,CTS
Fukuoka Airport,33.585899353,130.4510040283,JP,Fukuoka,FUK
Kagoshima Airport,31.8034000397,130.7189941406,JP,Kagoshima,KOJ
Chubu Centrair International Airport,34.8583984375,136.8049926758,JP,Tokoname,NGO
Mt. Fuji Shizuoka Airport,34.7960434679,138.18775177,JP,Makinohara / Shimada,FSZ
Osaka International Airport,34.7854995728,135.43800354,JP,Osaka,ITM
Tokyo International Airport,35.5522994995,139.7799987793,JP,Tokyo,HND
Muan International Airport,34.991406,126.382814,KR,Muan,MWX
Kunsan Air Base,35.9038009644,126.6159973145,KR,Kunsan,KUV
Jeju International Airport,33.5112991333,126.4929962158,KR,Jeju City,CJU
Gimhae International Airport,35.1795005798,128.93800354,KR,Busan,PUS
Incheon International Airport,37.4691009521,126.4509963989,KR,Seoul,ICN
Gimpo International Airport,37.5583000183,126.791000366,KR,Seoul,GMP
Cheongju International Airport,36.7165985107,127.499000549,KR,Cheongju,CJJ
Naha Airport,26.1958007812,127.646003723,JP,Naha,OKA
Clark International Airport,15.1859998703,120.559997559,PH,Angeles City,CRK
Ninoy Aquino International Airport,14.508600235,121.019996643,PH,Manila,MNL
Francisco Bangoy International Airport,7.1255202293,125.6460037231,PH,Davao City,DVO
Mactan Cebu International Airport,10.3074998856,123.9789962769,PH,Lapu-Lapu City,CEB
Grozny North Airport,43.3883018494,45.698600769,RU,Grozny,GRV
Ministro Pistarini International Airport,-34.8222,-58.5358,AR,Buenos Aires,EZE
Val de Cans/Júlio Cezar Ribeiro International Airport,-1.3792500496,-48.4762992859,BR,Belém,BEL
Presidente Juscelino Kubistschek International Airport,-15.8691673279,-47.9208335876,BR,Brasília,BSB
Tancredo Neves International Airport,-19.6244430542,-43.9719429016,BR,Belo Horizonte,CNF
Afonso Pena Airport,-25.5284996033,-49.1758003235,BR,Curitiba,CWB
Hercílio Luz International Airport,-27.6702785492,-48.5525016785,BR,Florianópolis,FLN
Rio Galeão – Tom Jobim International Airport,-22.8099994659,-43.2505569458,BR,Rio De Janeiro,GIG
Guarulhos - Governador André Franco Montoro International Airport,-23.4355564117,-46.4730567932,BR,São Paulo,GRU
Governador Aluízio Alves International Airport,-5.768056,-35.376111,BR,Natal,NAT
Congonhas Airport,-23.6261100769,-46.6563873291,BR,São Paulo,CGH
Deputado Luiz Eduardo Magalhães International Airport,-12.9086112976,-38.3224983215,BR,Salvador,SSA
Comodoro Arturo Merino Benítez International Airport,-33.3930015564,-70.7857971191,CL,Santiago,SCL
Cotopaxi International Airport,-0.906832993,-78.6157989502,EC,Latacunga,LTX
Mariscal Sucre International Airport,-0.1291666667,-78.3575,EC,Quito,UIO
El Dorado International Airport,4.70159,-74.1469,CO,Bogota,BOG
Jorge Chávez International Airport,-12.021900177,-77.1143035889,PE,Lima,LIM
Alejandro Velasco Astete International Airport,-13.5356998444,-71.9387969971,PE,Cusco,CUZ
Carrasco International /General C L Berisso Airport,-34.8384017944,-56.0307998657,UY,Montevideo,MVD
Luis Munoz Marin International Airport,18.4393997192,-66.0018005371,PR,San Juan,SJU
Enfidha - Hammamet International Airport,36.075833,10.438611,TN,Enfidha,NBE
Princess Juliana International Airport,18.0410003662,-63.1088981628,SX,Saint Martin,SXM
Almaty Airport,43.3521003723,77.0404968262,KZ,Almaty,ALA
Astana International Airport,51.0222015381,71.4669036865,KZ,Astana,TSE
Manas International Airport,43.0612983704,74.4776000977,KG,Bishkek,FRU
Sary-Arka Airport,49.6707992554,73.3343963623,KZ,Karaganda,KGF
Heydar Aliyev International Airport,40.4674987793,50.0466995239,AZ,Baku,GYD
Zvartnots International Airport,40.1473007202,44.3959007263,AM,Yerevan,EVN
Tbilisi International Airport,41.6692008972,44.95470047,GE,Tbilisi,TBS
Khabarovsk-Novy Airport,48.5279998779,135.18800354,RU,Khabarovsk,KHV
Boryspil International Airport,50.3450012207,30.8946990967,UA,Kiev,KBP
Donetsk International Airport,48.073600769,37.7397003174,UA,Donetsk,DOK
Simferopol International Airport,45.0522003174,33.9751014709,UA,Simferopol,SIP
Kharkiv International Airport,49.9248008728,36.2900009155,UA,Kharkiv,HRK
Odessa International Airport,46.4267997742,30.6765003204,UA,Odessa,ODS
Pulkovo Airport,59.8003005981,30.2625007629,RU,St. Petersburg,LED
Minsk National Airport,53.8824996948,28.0307006836,BY,Minsk,MSQ
Yemelyanovo Airport,56.1729011536,92.4933013916,RU,Krasnoyarsk,KJA
Tolmachevo Airport,55.0125999451,82.6507034302,RU,Novosibirsk,OVB
Rostov-on-Don Airport,47.2582015991,39.8180999756,RU,Rostov-on-Don,ROV
Sochi International Airport,43.4499015808,39.9566001892,RU,Sochi,AER
atl,33.137551,-84.375,US,,
Koltsovo Airport,56.7430992126,60.8027000427,RU,Yekaterinburg,SVX
Tashkent International Airport,41.257900238,69.2811965942,UZ,Tashkent,TAS
Domodedovo International Airport,55.4087982178,37.9062995911,RU,Moscow,DME
Sheremetyevo International Airport,55.9725990295,37.4146003723,RU,Moscow,SVO
Vnukovo International Airport,55.5914993286,37.2615013123,RU,Moscow,VKO
Kazan International Airport,55.6062011719,49.2787017822,RU,Kazan,KZN
Ufa International Airport,54.5574989319,55.8744010925,RU,Ufa,UFA
Kurumoch International Airport,53.504901886,50.1642990112,RU,Samara,KUF
Chhatrapati Shivaji International Airport,19.0886993408,72.8678970337,IN,Mumbai,BOM
Dabolim Airport,15.3808002472,73.8313980103,IN,Vasco da Gama,GOI
Bandaranaike International Colombo Airport,7.1807599068,79.8841018677,LK,Colombo,CMB
Mattala Rajapaksa International Airport,6.284467,81.124128,LK,,HRI
Phnom Penh International Airport,11.5466003418,104.84400177,KH,Phnom Penh,PNH
Siem Reap International Airport,13.4106998444,103.81300354,KH,Siem Reap,REP
Netaji Subhash Chandra Bose International Airport,22.6546993256,88.4467010498,IN,Kolkata,CCU
Chek Lap Kok International Airport,22.3089008331,113.915000916,HK,Hong Kong,HKG
Sri Guru Ram Dass Jee International Airport,31.7096004486,74.7973022461,IN,Amritsar,ATQ
Indira Gandhi International Airport,28.5664997101,77.1031036377,IN,New Delhi,DEL
Macau International Airport,22.1495990753,113.5920028687,MO,Taipa,MFM
Kempegowda International Airport,13.1979,77.706299,IN,Bangalore,BLR
Cochin International Airport,10.1520004272,76.4019012451,IN,Cochin,COK
Calicut International Airport,11.1367998123,75.9552993774,IN,Calicut,CCJ
Rajiv Gandhi International Airport,17.2313175201,78.4298553467,IN,Hyderabad,HYD
Chennai International Airport,12.9900054932,80.1692962646,IN,Chennai,MAA
Trivandrum International Airport,8.4821195602,76.9200973511,IN,Thiruvananthapuram,TRV
Malé International Airport,4.1918301582,73.5290985107,MV,Malé,MLE
Don Mueang International Airport,13.9125995636,100.607002258,TH,Bangkok,DMK
Suvarnabhumi Airport,13.6810998917,100.747001648,TH,Bangkok,BKK
Chiang Mai International Airport,18.7667999268,98.962600708,TH,Chiang Mai,CNX
Da Nang International Airport,16.0438995361,108.1989974976,VN,Da Nang,DAD
Noi Bai International Airport,21.221200943,105.8069992065,VN,Hanoi,HAN
Tan Son Nhat International Airport,10.8187999725,106.652000427,VN,Ho Chi Minh City,SGN
Mandalay International Airport,21.7021999359,95.977897644,MM,Mandalay,MDL
Yangon International Airport,16.9073009491,96.1332015991,MM,Yangon,RGN
Hasanuddin International Airport,-5.0616297722,119.5540008545,ID,Ujung Pandang-Celebes Island,UPG
Ngurah Rai (Bali) International Airport,-8.748169899,115.1669998169,ID,Denpasar-Bali Island,DPS
Juanda International Airport,-7.3798298836,112.7870025635,ID,Surabaya,SUB
Dominique Edward Osok Airport,-0.894,131.287,ID,Sorong-Papua Island,SOQ
Brunei International Airport,4.9442000389,114.9280014038,BN,Bandar Seri Begawan,BWN
Soekarno-Hatta International Airport,-6.1255698204,106.65599823,ID,Jakarta,CGK
Kuala Lumpur International Airport,2.745579958,101.7099990845,MY,Kuala Lumpur,KUL
Singapore Changi International Airport,1.3501900434,103.9940032959,SG,Singapore,SIN
Brisbane International Airport,-27.3841991425,153.1170043945,AU,Brisbane,BNE
Melbourne International Airport,-37.6733016968,144.8430023193,AU,Melbourne,MEL
Perth International Airport,-31.9402999878,115.9670028687,AU,Perth,PER
Canberra International Airport,-35.3069000244,149.1950073242,AU,Canberra,CBR
Sydney Kingsford Smith International Airport,-33.9460983276,151.1770019531,AU,Sydney,SYD
Beijing Capital International Airport,40.0801010132,116.5849990845,CN,Beijing,PEK
Beijing Nanyuan Airport,39.7827987671,116.3880004883,CN,Beijing,NAY
Tianjin Binhai International Airport,39.1244010925,117.346000671,CN,Tianjin,TSN
Taiyuan Wusu Airport,37.7468986511,112.6279983521,CN,Taiyuan,TYN
Guangzhou Baiyun International Airport,23.3924007416,113.2990036011,CN,Guangzhou,CAN
Changsha Huanghua International Airport,28.1891994476,113.220001221,CN,Changsha,CSX
Guilin Liangjiang International Airport,25.2180995941,110.0390014648,CN,Guilin City,KWL
Nanning Wuxu Airport,22.6082992554,108.1719970703,CN,Nanning,NNG
Shenzhen Bao'an International Airport,22.6392993927,113.8109970093,CN,Shenzhen,SZX
Zhengzhou Xinzheng International Airport,34.5196990967,113.841003418,CN,Zhengzhou,CGO
Wuhan Tianhe International Airport,30.7838001251,114.2080001831,CN,Wuhan,WUH
Haikou Meilan International Airport,19.9349002838,110.4589996338,CN,Haikou,HAK
Sanya Phoenix International Airport,18.3029003143,109.4120025635,CN,Sanya,SYX
Xi'an Xianyang International Airport,34.447101593,108.7519989014,CN,Xianyang,XIY
Kunming Changshui International Airport,25.1019444,102.9291667,CN,Kunming,KMG
Xiamen Gaoqi International Airport,24.5440006256,118.1279983521,CN,Xiamen,XMN
Fuzhou Changle International Airport,25.9351005554,119.6630020142,CN,Fuzhou,FOC
Hangzhou Xiaoshan International Airport,30.2294998169,120.4339981079,CN,Hangzhou,HGH
Yaoqiang Airport,36.8572006226,117.216003418,CN,Jinan,TNA
Ningbo Lishe International Airport,29.8267002106,121.4619979858,CN,Ningbo,NGB
Nanjing Lukou Airport,31.7420005798,118.8619995117,CN,Nanjing,NKG
Shanghai Pudong International Airport,31.1434001923,121.8050003052,CN,Shanghai,PVG
Shanghai Hongqiao International Airport,31.1979007721,121.3359985352,CN,Shanghai,SHA
Wenzhou Yongqiang Airport,27.9122009277,120.8519973755,CN,Wenzhou,WNZ
Chongqing Jiangbei International Airport,29.7192001343,106.641998291,CN,Chongqing,CKG
Longdongbao Airport,26.5384998322,106.8010025024,CN,Guiyang,KWE
Chengdu Shuangliu International Airport,30.5785007477,103.9469985962,CN,Chengdu,CTU
Ürümqi Diwopu International Airport,43.9071006775,87.4741973877,CN,Ürümqi,URC
Taiping Airport,45.6234016418,126.25,CN,Harbin,HRB
Zhoushuizi Airport,38.9656982422,121.5390014648,CN,Dalian,DLC
Taoxian Airport,41.6398010254,123.483001709,CN,Shenyang,SHE
